[{"OBJECT_ID":"2003-013D","OBJECT_NAME":"ARIANE 5 DEB (SYLDA)","NORAD_CAT_ID":"27717","OBJECT_TYPE":"DEBRIS","PERIOD":"647.393","INCLINATION":"1.9159","APOGEE":"35975.274","PERIGEE":"847.973","ECCENTRICITY":"0.7085043","MEAN_MOTION":"2.22430485","TLE_LINE1":"1 27717U 03013D   16238.81396130 -.00000134 +00000-0 -67986-2 0  9990","TLE_LINE2":"2 27717 001.9159 050.7015 7085043 022.7912 149.2820 02.22430485108767","LAUNCH_DATE":"2003-04-09","LAUNCH_SITE":"FRENCH GUIANA","OWNER":"FRANCE","ORBIT_TYPE":"Highly Elliptical Orbit","OPERATIONAL_STATUS":"N/A, space debris","satInfo":{"lng":-154.02665765135163,"lat":-2.6014809621282597,"elevation":-25.196701109856967,"azimuth":109.0266576513516,"range":16523.509102931883,"height":8588.566879214159,"velocity":6.098716790846406},"x":-32,"y":63,"dx":-5.482733631762421,"dy":2.6709508453157897},{"OBJECT_ID":"2003-014A","OBJECT_NAME":"ASIASAT 4","NORAD_CAT_ID":"27718","OBJECT_TYPE":"PAYLOAD","PERIOD":"1436.150","INCLINATION":"0.0092","APOGEE":"35793.544","PERIGEE":"35781.763","ECCENTRICITY":"0.0001397","MEAN_MOTION":"1.00268014","TLE_LINE1":"1 27718U 03014A   16238.80674259 -.00000387 +00000-0 +00000-0 0  9993","TLE_LINE2":"2 27718 000.0092 162.4200 0001397 284.8762 299.6986 01.00268014049004","LAUNCH_DATE":"2003-04-12","LAUNCH_SITE":"AIR FORCE EASTERN TEST RANGE","OWNER":"ASIASAT CORP","ORBIT_TYPE":"Geosynchronous","OPERATIONAL_STATUS":"Operational","satInfo":{"lng":78.92541473770429,"lat":-0.7024007337733335,"elevation":-9.255144450015028,"azimuth":236.07458526229573,"range":42738.907178851856,"height":35807.558845601954,"velocity":3.0741382120425054},"x":294,"y":-57,"dx":0.5905009869587184,"dy":-3.0168915013869277},{"OBJECT_ID":"2003-020A","OBJECT_NAME":"HELLAS-SAT 2","NORAD_CAT_ID":"27811","OBJECT_TYPE":"PAYLOAD","PERIOD":"1436.056","INCLINATION":"0.0364","APOGEE":"35801.909","PERIGEE":"35769.688","ECCENTRICITY":"0.0003821","MEAN_MOTION":"1.00274632","TLE_LINE1":"1 27811U 03020A   16239.18626075  .00000124  00000-0  00000+0 0  9996","TLE_LINE2":"2 27811   0.0364 297.7863 0003821 224.0426 279.0937  1.00274632 48420","LAUNCH_DATE":"2003-05-13","LAUNCH_SITE":"AIR FORCE EASTERN TEST RANGE","OWNER":"GREECE","ORBIT_TYPE":"Geosynchronous","OPERATIONAL_STATUS":"Operational","satInfo":{"lng":98.69730822036203,"lat":-0.3158127110758643,"elevation":-8.886300436720159,"azimuth":216.30269177963797,"range":42655.57134871141,"height":35766.07179769222,"velocity":3.075608747068951},"x":296,"y":44,"dx":-0.465076270502275,"dy":-3.0402422975254355},{"OBJECT_ID":"2003-024A","OBJECT_NAME":"AMC-9 (GE-12)","NORAD_CAT_ID":"27820","OBJECT_TYPE":"PAYLOAD","PERIOD":"1436.104","INCLINATION":"0.0636","APOGEE":"35798.954","PERIGEE":"35774.523","ECCENTRICITY":"0.0002897","MEAN_MOTION":"1.00271278","TLE_LINE1":"1 27820U 03024A   16239.27851650 -.00000244  00000-0  00000+0 0  9993","TLE_LINE2":"2 27820   0.0636 285.0864 0002897 234.6528 192.4665  1.00271278 48413","LAUNCH_DATE":"2003-06-06","LAUNCH_SITE":"TYURATAM MISSILE AND SPACE COMPLEX","OWNER":"SOCIÉTÉ EUROPÉENNE DES SATELLITES","ORBIT_TYPE":"Geosynchronous","OPERATIONAL_STATUS":"Operational","satInfo":{"lng":-99.92511253608757,"lat":0.11047541602678221,"elevation":-8.463832092617315,"azimuth":54.92511253608756,"range":42639.40978701417,"height":35796.96405238766,"velocity":3.074317466433316},"x":-296,"y":50,"dx":-0.529891982937574,"dy":3.0283068488572042},{"OBJECT_ID":"2003-028B","OBJECT_NAME":"OPTUS C1","NORAD_CAT_ID":"27831","OBJECT_TYPE":"PAYLOAD","PERIOD":"1436.098","INCLINATION":"0.0354","APOGEE":"35804.609","PERIGEE":"35768.634","ECCENTRICITY":"0.0004266","MEAN_MOTION":"1.00271694","TLE_LINE1":"1 27831U 03028B   16239.49261594 -.00000176  00000-0  00000+0 0  9999","TLE_LINE2":"2 27831   0.0354 220.8112 0004266 303.3875 144.3075  1.00271694 48408","LAUNCH_DATE":"2003-06-11","LAUNCH_SITE":"FRENCH GUIANA","OWNER":"AUSTRALIA","ORBIT_TYPE":"Geosynchronous","OPERATIONAL_STATUS":"Operational","satInfo":{"lng":-126.56363537214145,"lat":0.9025989697408643,"elevation":-7.686739854904661,"azimuth":81.56363537214143,"range":42564.09864295296,"height":35808.71769212619,"velocity":3.0742267639307386},"x":-241,"y":174,"dx":-1.831363675223078,"dy":2.469205800483524},{"OBJECT_ID":"2003-033A","OBJECT_NAME":"ECHOSTAR 12 (RAINBOW 1)","NORAD_CAT_ID":"27852","OBJECT_TYPE":"PAYLOAD","PERIOD":"1436.083","INCLINATION":"0.0616","APOGEE":"35793.048","PERIGEE":"35779.631","ECCENTRICITY":"0.0001591","MEAN_MOTION":"1.00272701","TLE_LINE1":"1 27852U 03033A   16239.38890537 -.00000311  00000-0  00000+0 0  9992","TLE_LINE2":"2 27852   0.0616 286.4114 0001591 201.1604 286.3075  1.00272701 48075","LAUNCH_DATE":"2003-07-17","LAUNCH_SITE":"AIR FORCE EASTERN TEST RANGE","OWNER":"UNITED STATES OF AMERICA","ORBIT_TYPE":"Geosynchronous","OPERATIONAL_STATUS":"Operational","satInfo":{"lng":-71.10881526055049,"lat":1.1148523256421448,"elevation":-7.479799537986059,"azimuth":26.10881526055048,"range":42536.267379053344,"height":35804.158504963954,"velocity":3.0738516741742328},"x":-284,"y":-95,"dx":0.9952266557706257,"dy":2.908279219481402},{"OBJECT_ID":"2003-034A","OBJECT_NAME":"GALAXY 23 (TELSTAR 13)","NORAD_CAT_ID":"27854","OBJECT_TYPE":"PAYLOAD","PERIOD":"1436.089","INCLINATION":"0.0305","APOGEE":"35801.237","PERIGEE":"35771.662","ECCENTRICITY":"0.0003507","MEAN_MOTION":"1.00272309","TLE_LINE1":"1 27854U 03034A   16239.28876440 -.00000015  00000-0  00000+0 0  9992","TLE_LINE2":"2 27854   0.0305 129.2868 0003507  61.7739 126.8436  1.00272309 52629","LAUNCH_DATE":"2003-08-08","LAUNCH_SITE":"SEA LAUNCH","OWNER":"UNITED STATES OF AMERICA","ORBIT_TYPE":"Geosynchronous","OPERATIONAL_STATUS":"Operational","satInfo":{"lng":-106.6714737585074,"lat":0.9066668511953507,"elevation":-7.690936837843492,"azimuth":61.67147375850736,"range":42523.46156244693,"height":35768.07116921209,"velocity":3.0757167622334736},"x":-287,"y":84,"dx":-0.8823727176891702,"dy":2.9464303807423975},{"OBJECT_ID":"2003-034B","OBJECT_NAME":"BLOCK DM-SL R/B","NORAD_CAT_ID":"27855","OBJECT_TYPE":"ROCKET BODY","PERIOD":"641.020","INCLINATION":"0.2442","APOGEE":"35829.963","PERIGEE":"667.400","ECCENTRICITY":"0.713908","MEAN_MOTION":"2.24641683","TLE_LINE1":"1 27855U 03034B   16239.16795332 -.00000191  00000-0  55919-3 0  9998","TLE_LINE2":"2 27855   0.2442 223.9987 7139080 133.7561 352.8668  2.24641683107131","LAUNCH_DATE":"2003-08-08","LAUNCH_SITE":"SEA LAUNCH","OWNER":"SEA LAUNCH DEMO","ORBIT_TYPE":"Highly Elliptical Orbit","OPERATIONAL_STATUS":"N/A, derelict rocket body","satInfo":{"lng":-161.74098995428736,"lat":0.047513324912932114,"elevation":-11.520031144386827,"azimuth":116.74098995428734,"range":31702.874225738164,"height":24686.091710048233,"velocity":3.077954726698761},"x":-65,"y":192,"dx":-2.9229792996009687,"dy":0.9643636833225704},{"OBJECT_ID":"2003-043A","OBJECT_NAME":"EUTE 33A (EB 3)","NORAD_CAT_ID":"27948","OBJECT_TYPE":"PAYLOAD","PERIOD":"1436.136","INCLINATION":"1.7757","APOGEE":"35793.816","PERIGEE":"35780.914","ECCENTRICITY":"0.000153","MEAN_MOTION":"1.00269044","TLE_LINE1":"1 27948U 03043A   16239.00671532  .00000125  00000-0  00000+0 0  9992","TLE_LINE2":"2 27948   1.7757  79.4504 0001530 208.8982  79.5962  1.00269044 47403","LAUNCH_DATE":"2003-09-27","LAUNCH_SITE":"FRENCH GUIANA","OWNER":"EUROPEAN TELECOMMUNICATIONS SATELLITE ORGANIZATION (EUTELSAT)","ORBIT_TYPE":"Geosynchronous","OPERATIONAL_STATUS":"Operational","satInfo":{"lng":78.7643490088021,"lat":1.868867928962497,"elevation":-6.748285885116594,"azimuth":236.2356509911979,"range":42415.23628702414,"height":35765.63965563576,"velocity":3.0752867515485027},"x":294,"y":-57,"dx":0.5992032954214317,"dy":-3.016346136471383},{"OBJECT_ID":"2003-043E","OBJECT_NAME":"INSAT 3E","NORAD_CAT_ID":"27951","OBJECT_TYPE":"PAYLOAD","PERIOD":"1428.505","INCLINATION":"1.9075","APOGEE":"35718.538","PERIGEE":"35557.196","ECCENTRICITY":"0.00192","MEAN_MOTION":"1.00804673","TLE_LINE1":"1 27951U 03043E   16239.38546310 -.00000306  00000-0  00000+0 0  9994","TLE_LINE2":"2 27951   1.9075  79.9519 0019200 158.2724 161.6684  1.00804673 47348","LAUNCH_DATE":"2003-09-27","LAUNCH_SITE":"FRENCH GUIANA","OWNER":"INDIA","ORBIT_TYPE":"Geosynchronous","OPERATIONAL_STATUS":"Nonoperational","satInfo":{"lng":-42.97346950819931,"lat":-4.151413543137338,"elevation":-12.64211199831913,"azimuth":357.97346950819934,"range":42921.83600345422,"height":35613.17326965948,"velocity":3.0819962954420124},"x":-204,"y":-214,"dx":2.2550024380687708,"dy":2.100872478143827},{"OBJECT_ID":"2003-044B","OBJECT_NAME":"BLOCK DM-SL R/B","NORAD_CAT_ID":"27953","OBJECT_TYPE":"ROCKET BODY","PERIOD":"671.565","INCLINATION":"0.7946","APOGEE":"35769.176","PERIGEE":"2280.657","ECCENTRICITY":"0.6591436","MEAN_MOTION":"2.14424259","TLE_LINE1":"1 27953U 03044B   16238.56483914 -.00000132 +00000-0 +00000-0 0  9994","TLE_LINE2":"2 27953 000.7946 038.6462 6591436 066.8064 333.6825 02.14424259101035","LAUNCH_DATE":"2003-10-01","LAUNCH_SITE":"SEA LAUNCH","OWNER":"SEA LAUNCH DEMO","ORBIT_TYPE":"Highly Elliptical Orbit","OPERATIONAL_STATUS":"N/A, derelict rocket body","satInfo":{"lng":-148.09835576849815,"lat":2.281072650681579,"elevation":-6.809737990378953,"azimuth":103.09835576849815,"range":40213.89312071211,"height":33583.69402141325,"velocity":2.0636209730216573},"x":-149,"y":233,"dx":-1.7519244851193285,"dy":1.0905467063515564}]